     2.100          NAVIGATION                              RINEX VERSION / TYPE
fic2rin                                 11/04/2012 00:08:32 PGM / RUN BY / DATE
                                                            END OF HEADER
31 12 11  3 23 59 44.0  .284677371383D-03  .227373675443D-11  .000000000000D+00
     .110000000000D+02  .181250000000D+01  .425482008748D-08 -.952567338139D+00
     .115483999252D-06  .796379696112D-02  .310689210892D-05  .515375622749D+04
     .604784000000D+06 -.726431608200D-07 -.828028604178D+00 -.130385160446D-07
     .980778029479D+00  .332812500000D+03 -.853337950071D+00 -.821712799065D-08
    -.110718897601D-10  .100000000000D+01  .171200000000D+04  .000000000000D+00
     .240000000000D+01  .000000000000D+00 -.135041773319D-07  .110000000000D+02
     .600786000000D+06  .400000000000D+01
24 12 11  3 23 59 44.0  .384030863643D-05  .159161572810D-11  .000000000000D+00
     .200000000000D+02  .123750000000D+02  .461304929488D-08  .192809015480D+01
     .551342964172D-06  .136828399263D-03  .241957604885D-05  .517666021156D+04
     .604784000000D+06 -.447034835815D-07 -.856814187213D+00 -.186264514923D-07
     .959279310154D+00  .325000000000D+03 -.121702177352D+01 -.819176979152D-08
    -.903609067516D-10  .100000000000D+01  .171200000000D+04  .000000000000D+00
     .240000000000D+01  .630000000000D+02  .465661287308D-08  .200000000000D+02
     .603156000000D+06  .400000000000D+01
